$$SOE
2461295.500000000, A.D. 2026-Sep-12 00:00:00.0000, 2.004200724488231E+08, -3.364462932839363E+08, -4.621270123439729E+07,
2461302.500000000, A.D. 2026-Sep-19 00:00:00.0000, 2.080403342828366E+08, -3.279743929371589E+08, -4.696571514791849E+07,
2461309.500000000, A.D. 2026-Sep-26 00:00:00.0000, 2.154919222401445E+08, -3.192366452360160E+08, -4.768064885791425E+07,
2461316.500000000, A.D. 2026-Oct-03 00:00:00.0000, 2.227645467903372E+08, -3.102338463746243E+08, -4.835598300930387E+07,
2461323.500000000, A.D. 2026-Oct-10 00:00:00.0000, 2.298476284613507E+08, -3.009671552999153E+08, -4.899017146348652E+07,
2461330.500000000, A.D. 2026-Oct-17 00:00:00.0000, 2.367303007829536E+08, -2.914381234654241E+08, -4.958164315348801E+07,
2461337.500000000, A.D. 2026-Oct-24 00:00:00.0000, 2.434014152152503E+08, -2.816487262354921E+08, -5.012880432263993E+07,
2461344.500000000, A.D. 2026-Oct-31 00:00:00.0000, 2.498495484210391E+08, -2.716013959628240E+08, -5.063004119841185E+07,
2461351.500000000, A.D. 2026-Nov-07 00:00:00.0000, 2.560630125020823E+08, -2.612990565933517E+08, -5.108372316515815E+07,
2461358.500000000, A.D. 2026-Nov-14 00:00:00.0000, 2.620298687009562E+08, -2.507451588094396E+08, -5.148820642201965E+07,
2461365.500000000, A.D. 2026-Nov-21 00:00:00.0000, 2.677379430720753E+08, -2.399437148932262E+08, -5.184183794520827E+07,
2461372.500000000, A.D. 2026-Nov-28 00:00:00.0000, 2.731748434487232E+08, -2.288993361369057E+08, -5.214295994943957E+07,
2461379.500000000, A.D. 2026-Dec-05 00:00:00.0000, 2.783279816596479E+08, -2.176172732231807E+08, -5.238991527328084E+07,
2461386.500000000, A.D. 2026-Dec-12 00:00:00.0000, 2.831846015014483E+08, -2.061034561790483E+08, -5.258105348699442E+07,
2461393.500000000, A.D. 2026-Dec-19 00:00:00.0000, 2.877318109195651E+08, -1.943645335532338E+08, -5.271473758419716E+07,
2461400.500000000, A.D. 2026-Dec-26 00:00:00.0000, 2.919566185851322E+08, -1.824079112772667E+08, -5.278935134560980E+07,
2461407.500000000, A.D. 2027-Jan-02 00:00:00.0000, 2.958459754538641E+08, -1.702417909231572E+08, -5.280330744003990E+07,
2461414.500000000, A.D. 2027-Jan-09 00:00:00.0000, 2.993868217043893E+08, -1.578752067862329E+08, -5.275505628803558E+07,
2461421.500000000, A.D. 2027-Jan-16 00:00:00.0000, 3.025661393292409E+08, -1.453180611577384E+08, -5.264309569723913E+07,
2461428.500000000, A.D. 2027-Jan-23 00:00:00.0000, 3.053710106045116E+08, -1.325811571245283E+08, -5.246598127124241E+07,
2461435.500000000, A.D. 2027-Jan-30 00:00:00.0000, 3.077886827303791E+08, -1.196762281657294E+08, -5.222233759241010E+07,
2461442.500000000, A.D. 2027-Feb-06 00:00:00.0000, 3.098066390811734E+08, -1.066159633542791E+08, -5.191087015173282E+07,
2461449.500000000, A.D. 2027-Feb-13 00:00:00.0000, 3.114126765174729E+08, -9.341402602881435E+07, -5.153037782753079E+07,
2461456.500000000, A.D. 2027-Feb-20 00:00:00.0000, 3.125949861861979E+08, -8.008506576794431E+07, -5.107976568446662E+07,
2461463.500000000, A.D. 2027-Feb-27 00:00:00.0000, 3.133422388415471E+08, -6.664472588675044E+07, -5.055805838227966E+07,
2461470.500000000, A.D. 2027-Mar-06 00:00:00.0000, 3.136436771768353E+08, -5.310964351820773E+07, -4.996441418618732E+07,
2461477.500000000, A.D. 2027-Mar-13 00:00:00.0000, 3.134892128677676E+08, -3.949743922560834E+07, -4.929813911150209E+07,
2461484.500000000, A.D. 2027-Mar-20 00:00:00.0000, 3.128695263131405E+08, -2.582669601919815E+07, -4.855870098802152E+07,
2461491.500000000, A.D. 2027-Mar-27 00:00:00.0000, 3.117761681958410E+08, -1.211692744035327E+07, -4.774574330264419E+07,
2461498.500000000, A.D. 2027-Apr-03 00:00:00.0000, 3.102016617934471E+08, 1.611466011307914E+06, -4.685909861366309E+07,
2461505.500000000, A.D. 2027-Apr-10 00:00:00.0000, 3.081396046396140E+08, 1.533725274926883E+07, -4.589880129045099E+07,
2461512.500000000, A.D. 2027-Apr-17 00:00:00.0000, 3.055847679285694E+08, 2.903843867805460E+07, -4.486509931533733E+07,
2461519.500000000, A.D. 2027-Apr-24 00:00:00.0000, 3.025331919689704E+08, 4.269234860047171E+07, -4.375846488334312E+07,
2461526.500000000, A.D. 2027-May-01 00:00:00.0000, 2.989822761044167E+08, 5.627572038892295E+07, -4.257960354501063E+07,
2461533.500000000, A.D. 2027-May-08 00:00:00.0000, 2.949308614547623E+08, 6.976481226758277E+07, -4.132946158283126E+07,
2461540.500000000, A.D. 2027-May-15 00:00:00.0000, 2.903793030201436E+08, 8.313552343451077E+07, -4.000923114339757E+07,
2461547.500000000, A.D. 2027-May-22 00:00:00.0000, 2.853295276948944E+08, 9.636352436005153E+07, -3.862035295921646E+07,
2461554.500000000, A.D. 2027-May-29 00:00:00.0000, 2.797850797707702E+08, 1.094243938581260E+08, -3.716451688663081E+07,
2461561.500000000, A.D. 2027-Jun-05 00:00:00.0000, 2.737511532057725E+08, 1.222937642949636E+08, -3.564365992265289E+07,
2461568.500000000, A.D. 2027-Jun-12 00:00:00.0000, 2.672346072952743E+08, 1.349474733062994E+08, -3.405996137081435E+07,
2461575.500000000, A.D. 2027-Jun-19 00:00:00.0000, 2.602439643816570E+08, 1.473617187815492E+08, -3.241583515393919E+07,
2461582.500000000, A.D. 2027-Jun-26 00:00:00.0000, 2.527893892347623E+08, 1.595132143620281E+08, -3.071391934241814E+07,
2461589.500000000, A.D. 2027-Jul-03 00:00:00.0000, 2.448826500193782E+08, 1.713793428487719E+08, -2.895706300307781E+07,
2461596.500000000, A.D. 2027-Jul-10 00:00:00.0000, 2.365370611190791E+08, 1.829383048687343E+08, -2.714831053378748E+07,
2461603.500000000, A.D. 2027-Jul-17 00:00:00.0000, 2.277674085303784E+08, 1.941692601420279E+08, -2.529088371625985E+07,
2461610.500000000, A.D. 2027-Jul-24 00:00:00.0000, 2.185898590920711E+08, 2.050524588054389E+08, -2.338816179030110E+07,
2461617.500000000, A.D. 2027-Jul-31 00:00:00.0000, 2.090218554746614E+08, 2.155693607699606E+08, -2.144365990263315E+07,
2461624.500000000, A.D. 2027-Aug-07 00:00:00.0000, 1.990819985988649E+08, 2.257027422981344E+08, -1.946100619252949E+07,
2461631.500000000, A.D. 2027-Aug-14 00:00:00.0000, 1.887899173308349E+08, 2.354367879388973E+08, -1.744391772382580E+07,
2461638.500000000, A.D. 2027-Aug-21 00:00:00.0000, 1.781661284463321E+08, 2.447571632752182E+08, -1.539617601045097E+07,
2461645.500000000, A.D. 2027-Aug-28 00:00:00.0000, 1.672318928226005E+08, 2.536510689359871E+08, -1.332160277062578E+07,
2461652.500000000, A.D. 2027-Sep-04 00:00:00.0000, 1.560090692390814E+08, 2.621072780491040E+08, -1.122403599964857E+07,
2461659.500000000, A.D. 2027-Sep-11 00:00:00.0000, 1.445199669131286E+08, 2.701161565866442E+08, -9.107306663595885E+06,
2461666.500000000, A.D. 2027-Sep-18 00:00:00.0000, 1.327871993161131E+08, 2.776696664721984E+08, -6.975216420080468E+06,
2461673.500000000, A.D. 2027-Sep-25 00:00:00.0000, 1.208335417311823E+08, 2.847613522550938E+08, -4.831516689903125E+06,
2461680.500000000, A.D. 2027-Oct-02 00:00:00.0000, 1.086817946236592E+08, 2.913863125699278E+08, -2.679889330343440E+06,
2461687.500000000, A.D. 2027-Oct-09 00:00:00.0000, 9.635465456471376E+07, 2.975411578156015E+08, -5.239291048670858E+05,
2461694.500000000, A.D. 2027-Oct-16 00:00:00.0000, 8.387459418534900E+07, 3.032239556208936E+08, 1.632871902850598E+06,
2461701.500000000, A.D. 2027-Oct-23 00:00:00.0000, 7.126375251785032E+07, 3.084341658316928E+08, 3.787137822174385E+06,
2461708.500000000, A.D. 2027-Oct-30 00:00:00.0000, 5.854383688211069E+07, 3.131725674300156E+08, 5.935620457754835E+06,
2461715.500000000, A.D. 2027-Nov-06 00:00:00.0000, 4.573603563848840E+07, 3.174411803121287E+08, 8.075208891204417E+06,
2461722.500000000, A.D. 2027-Nov-13 00:00:00.0000, 3.286094002460852E+07, 3.212431815841681E+08, 1.020293728653134E+07,
2461729.500000000, A.D. 2027-Nov-20 00:00:00.0000, 1.993847791625588E+07, 3.245828158391110E+08, 1.231599054158649E+07,
2461736.500000000, A.D. 2027-Nov-27 00:00:00.0000, 6.987860861500639E+06, 3.274653039244788E+08, 1.441170799265739E+07,
2461743.500000000, A.D. 2027-Dec-04 00:00:00.0000, -5.972458079039765E+06, 3.298967524986768E+08, 1.648758556585316E+07,
2461750.500000000, A.D. 2027-Dec-11 00:00:00.0000, -1.892481683129239E+07, 3.318840646283846E+08, 1.854127649532524E+07,
2461757.500000000, A.D. 2027-Dec-18 00:00:00.0000, -3.185236757606964E+07, 3.334348521378592E+08, 2.057059071219459E+07,
2461764.500000000, A.D. 2027-Dec-25 00:00:00.0000, -4.473909141492337E+07, 3.345573505875854E+08, 2.257349304985608E+07,
2461771.500000000, A.D. 2028-Jan-01 00:00:00.0000, -5.756980521938314E+07, 3.352603376095988E+08, 2.454810042143908E+07,
$$EOE